[{"OBJECT_NAME":"YAOGAN-37","OBJECT_ID":"2023-006C","EPOCH":"2026-03-09T23:15:16.754688","MEAN_MOTION":15.16132405,"ECCENTRICITY":0.00165574,"INCLINATION":43.1974,"RA_OF_ASC_NODE":311.9793,"ARG_OF_PERICENTER":108.2694,"MEAN_ANOMALY":251.9959,"EPHEMERIS_TYPE":0,"CLASSIFICATION_TYPE":"U","NORAD_CAT_ID":55244,"ELEMENT_SET_NO":999,"REV_AT_EPOCH":17481,"BSTAR":0.00034068516,"MEAN_MOTION_DOT":6.475e-5,"MEAN_MOTION_DDOT":0},{"OBJECT_NAME":"STARLINK-36484","OBJECT_ID":"2026-005A","EPOCH":"2026-03-09T22:00:01.999584","MEAN_MOTION":15.28559164,"ECCENTRICITY":0.00020575,"INCLINATION":43.0009,"RA_OF_ASC_NODE":236.4215,"ARG_OF_PERICENTER":285.389,"MEAN_ANOMALY":107.322,"EPHEMERIS_TYPE":0,"CLASSIFICATION_TYPE":"U","NORAD_CAT_ID":67404,"ELEMENT_SET_NO":999,"REV_AT_EPOCH":575,"BSTAR":-0.051392169,"MEAN_MOTION_DOT":-0.01328663,"MEAN_MOTION_DDOT":0}]
